{"type": "FeatureCollection", "features": [ {"type": "Feature", "properties": {"norad_id": 43437, "name": "SENTINEL-3B", "group": "resource", "lat": -1.0309688919905986, "lon": 60.69644872672194, "alt_km": 805.7876148982468, "timestamp": "2025-12-21T11:31:42.499535+00:00", "meta": {"OBJECT_NAME": "SENTINEL-3B", "OBJECT_ID": "2018-039A", "EPOCH": "2025-12-21T03:07:03.945792", "MEAN_MOTION": 14.26736979, "ECCENTRICITY": 0.0001631, "INCLINATION": 98.6257, "RA_OF_ASC_NODE": 60.1946, "ARG_OF_PERICENTER": 93.5044, "MEAN_ANOMALY": 266.6323, "EPHEMERIS_TYPE": 0, "CLASSIFICATION_TYPE": "U", "NORAD_CAT_ID": 43437, "ELEMENT_SET_NO": 999, "REV_AT_EPOCH": 39873, "BSTAR": 6.0795e-05, "MEAN_MOTION_DOT": 1.03e-06, "MEAN_MOTION_DDOT": 0}, "tle": {"line1": "1 43437U 18039A   25355.12990678  .00000103  00000+0  60795-4 0  9998", "line2": "2 43437  98.6257  60.1946 0001631  93.5044 266.6323 14.26736979398734"}}, "geometry": {"type": "Point", "coordinates": [60.69644872672194, -1.0309688919905986]}}, {"type": "Feature", "properties": {"norad_id": 43461, "name": "GAOFEN-5 01", "group": "resource", "lat": -33.323227159562755, "lon": -35.80150281328468, "alt_km": 697.7099715706772, "timestamp": "2025-12-21T11:31:42.499545+00:00", "meta": {"OBJECT_NAME": "GAOFEN-5 01", "OBJECT_ID": "2018-043A", "EPOCH": "2025-12-21T03:27:39.430368", "MEAN_MOTION": 14.60418022, "ECCENTRICITY": 5.16e-05, "INCLINATION": 98.4338, "RA_OF_ASC_NODE": 318.2586, "ARG_OF_PERICENTER": 283.9485, "MEAN_ANOMALY": 76.1657, "EPHEMERIS_TYPE": 0, "CLASSIFICATION_TYPE": "U", "NORAD_CAT_ID": 43461, "ELEMENT_SET_NO": 999, "REV_AT_EPOCH": 40570, "BSTAR": 7.4418e-05, "MEAN_MOTION_DOT": 3.12e-06, "MEAN_MOTION_DDOT": 0}, "tle": {"line1": "1 43461U 18043A   25355.14420637  .00000312  00000+0  74418-4 0  9994", "line2": "2 43461  98.4338 318.2586 0000516 283.9485  76.1657 14.60418022405705"}}, "geometry": {"type": "Point", "coordinates": [-35.80150281328468, -33.323227159562755]}}, {"type": "Feature", "properties": {"norad_id": 43484, "name": "GAOFEN-6", "group": "resource", "lat": 69.2325868556824, "lon": -99.3476786684137, "alt_km": 630.5686411909501, "timestamp": "2025-12-21T11:31:42.499556+00:00", "meta": {"OBJECT_NAME": "GAOFEN-6", "OBJECT_ID": "2018-048A", "EPOCH": "2025-12-21T04:31:51.403296", "MEAN_MOTION": 14.76578604, "ECCENTRICITY": 0.0012802, "INCLINATION": 97.8027, "RA_OF_ASC_NODE": 59.1722, "ARG_OF_PERICENTER": 38.7061, "MEAN_ANOMALY": 321.5064, "EPHEMERIS_TYPE": 0, "CLASSIFICATION_TYPE": "U", "NORAD_CAT_ID": 43484, "ELEMENT_SET_NO": 999, "REV_AT_EPOCH": 40712, "BSTAR": 2.1765e-05, "MEAN_MOTION_DOT": 1.03e-06, "MEAN_MOTION_DDOT": 0}, "tle": {"line1": "1 43484U 18048A   25355.18878939  .00000103  00000+0  21765-4 0  9995", "line2": "2 43484  97.8027  59.1722 0012802  38.7061 321.5064 14.76578604407125"}}, "geometry": {"type": "Point", "coordinates": [-99.3476786684137, 69.2325868556824]}}, {"type": "Feature", "properties": {"norad_id": 43585, "name": "GAOFEN-11 01", "group": "resource", "lat": 41.125133645268434, "lon": 52.045414392608876, "alt_km": 417.005876734901, "timestamp": "2025-12-21T11:31:42.499566+00:00", "meta": {"OBJECT_NAME": "GAOFEN-11 01", "OBJECT_ID": "2018-063A", "EPOCH": "2025-12-21T05:08:59.864928", "MEAN_MOTION": 15.4944091, "ECCENTRICITY": 0.0003912, "INCLINATION": 97.1555, "RA_OF_ASC_NODE": 58.0793, "ARG_OF_PERICENTER": 268.6551, "MEAN_ANOMALY": 91.4252, "EPHEMERIS_TYPE": 0, "CLASSIFICATION_TYPE": "U", "NORAD_CAT_ID": 43585, "ELEMENT_SET_NO": 999, "REV_AT_EPOCH": 41273, "BSTAR": 0.00020605, "MEAN_MOTION_DOT": 0.00011236, "MEAN_MOTION_DDOT": 0}, "tle": {"line1": "1 43585U 18063A   25355.21458177  .00011236  00000+0  20605-3 0  9996", "line2": "2 43585  97.1555  58.0793 0003912 268.6551  91.4252 15.49440910412736"}}, "geometry": {"type": "Point", "coordinates": [52.045414392608876, 41.125133645268434]}}, {"type": "Feature", "properties": {"norad_id": 43613, "name": "ICESAT-2", "group": "resource", "lat": -13.649808692855096, "lon": 62.60874388241012, "alt_km": 485.29789375560085, "timestamp": "2025-12-21T11:31:42.499576+00:00", "meta": {"OBJECT_NAME": "ICESAT-2", "OBJECT_ID": "2018-070A", "EPOCH": "2025-12-21T02:49:36.554016", "MEAN_MOTION": 15.28242403, "ECCENTRICITY": 0.0002915, "INCLINATION": 92.0046, "RA_OF_ASC_NODE": 242.9983, "ARG_OF_PERICENTER": 120.4848, "MEAN_ANOMALY": 239.6689, "EPHEMERIS_TYPE": 0, "CLASSIFICATION_TYPE": "U", "NORAD_CAT_ID": 43613, "ELEMENT_SET_NO": 999, "REV_AT_EPOCH": 40526, "BSTAR": 0.00031396, "MEAN_MOTION_DOT": 8.637e-05, "MEAN_MOTION_DDOT": 0}, "tle": {"line1": "1 43613U 18070A   25355.11778419  .00008637  00000+0  31396-3 0  9999", "line2": "2 43613  92.0046 242.9983 0002915 120.4848 239.6689 15.28242403405262"}}, "geometry": {"type": "Point", "coordinates": [62.60874388241012, -13.649808692855096]}}, {"type": "Feature", "properties": {"norad_id": 43719, "name": "HYSIS", "group": "resource", "lat": -29.851670718861268, "lon": -126.21920592302946, "alt_km": 640.1525861944983, "timestamp": "2025-12-21T11:31:42.499586+00:00", "meta": {"OBJECT_NAME": "HYSIS", "OBJECT_ID": "2018-096A", "EPOCH": "2025-12-21T04:05:06.468000", "MEAN_MOTION": 14.78666194, "ECCENTRICITY": 0.0001003, "INCLINATION": 98.0093, "RA_OF_ASC_NODE": 58.1071, "ARG_OF_PERICENTER": 53.0776, "MEAN_ANOMALY": 307.0527, "EPHEMERIS_TYPE": 0, "CLASSIFICATION_TYPE": "U", "NORAD_CAT_ID": 43719, "ELEMENT_SET_NO": 999, "REV_AT_EPOCH": 38111, "BSTAR": 0.00010464, "MEAN_MOTION_DOT": 7.15e-06, "MEAN_MOTION_DDOT": 0}, "tle": {"line1": "1 43719U 18096A   25355.17021375  .00000715  00000+0  10464-3 0  9994", "line2": "2 43719  98.0093  58.1071 0001003  53.0776 307.0527 14.78666194381119"}}, "geometry": {"type": "Point", "coordinates": [-126.21920592302946, -29.851670718861268]}}, {"type": "Feature", "properties": {"norad_id": 43783, "name": "KAZSTSAT", "group": "resource", "lat": 16.185341647986935, "lon": 28.11157316695315, "alt_km": 569.2278325195784, "timestamp": "2025-12-21T11:31:42.499597+00:00", "meta": {"OBJECT_NAME": "KAZSTSAT", "OBJECT_ID": "2018-099AB", "EPOCH": "2025-12-21T01:50:44.888352", "MEAN_MOTION": 14.99364891, "ECCENTRICITY": 0.0006024, "INCLINATION": 97.4527, "RA_OF_ASC_NODE": 29.903, "ARG_OF_PERICENTER": 292.687, "MEAN_ANOMALY": 67.3717, "EPHEMERIS_TYPE": 0, "CLASSIFICATION_TYPE": "U", "NORAD_CAT_ID": 43783, "ELEMENT_SET_NO": 999, "REV_AT_EPOCH": 38461, "BSTAR": 1.8044e-05, "MEAN_MOTION_DOT": 1.65e-06, "MEAN_MOTION_DDOT": 0}, "tle": {"line1": "1 43783U 18099AB  25355.07690843  .00000165  00000+0  18044-4 0  9991", "line2": "2 43783  97.4527  29.9030 0006024 292.6870  67.3717 14.99364891384617"}}, "geometry": {"type": "Point", "coordinates": [28.11157316695315, 16.185341647986935]}}, {"type": "Feature", "properties": {"norad_id": 43831, "name": "SAUDISAT 5A", "group": "resource", "lat": 2.8742653298978174, "lon": -124.1265359583043, "alt_km": 496.01670228597413, "timestamp": "2025-12-21T11:31:42.499607+00:00", "meta": {"OBJECT_NAME": "SAUDISAT 5A", "OBJECT_ID": "2018-102A", "EPOCH": "2025-12-21T04:27:36.283968", "MEAN_MOTION": 15.25751374, "ECCENTRICITY": 0.0011359, "INCLINATION": 97.3342, "RA_OF_ASC_NODE": 55.2141, "ARG_OF_PERICENTER": 50.2074, "MEAN_ANOMALY": 310.0163, "EPHEMERIS_TYPE": 0, "CLASSIFICATION_TYPE": "U", "NORAD_CAT_ID": 43831, "ELEMENT_SET_NO": 999, "REV_AT_EPOCH": 38851, "BSTAR": 0.00017586, "MEAN_MOTION_DOT": 4.423e-05, "MEAN_MOTION_DDOT": 0}, "tle": {"line1": "1 43831U 18102A   25355.18583662  .00004423  00000+0  17586-3 0  9992", "line2": "2 43831  97.3342  55.2141 0011359  50.2074 310.0163 15.25751374388513"}}, "geometry": {"type": "Point", "coordinates": [-124.1265359583043, 2.8742653298978174]}}, {"type": "Feature", "properties": {"norad_id": 43833, "name": "SAUDISAT 5B", "group": "resource", "lat": -59.36452372519319, "lon": -134.32064214682262, "alt_km": 502.8409216903192, "timestamp": "2025-12-21T11:31:42.499617+00:00", "meta": {"OBJECT_NAME": "SAUDISAT 5B", "OBJECT_ID": "2018-102C", "EPOCH": "2025-12-21T04:11:06.851904", "MEAN_MOTION": 15.26099723, "ECCENTRICITY": 0.0012078, "INCLINATION": 97.3437, "RA_OF_ASC_NODE": 57.9566, "ARG_OF_PERICENTER": 52.2758, "MEAN_ANOMALY": 307.9574, "EPHEMERIS_TYPE": 0, "CLASSIFICATION_TYPE": "U", "NORAD_CAT_ID": 43833, "ELEMENT_SET_NO": 999, "REV_AT_EPOCH": 38862, "BSTAR": 0.0001603, "MEAN_MOTION_DOT": 4.069e-05, "MEAN_MOTION_DDOT": 0}, "tle": {"line1": "1 43833U 18102C   25355.17438486  .00004069  00000+0  16030-3 0  9995", "line2": "2 43833  97.3437  57.9566 0012078  52.2758 307.9574 15.26099723388627"}}, "geometry": {"type": "Point", "coordinates": [-134.32064214682262, -59.36452372519319]}}, {"type": "Feature", "properties": {"norad_id": 44622, "name": "GAOFEN-10R", "group": "resource", "lat": -80.4267106705903, "lon": 66.20538790353493, "alt_km": 629.6724603867369, "timestamp": "2025-12-21T11:31:42.499629+00:00", "meta": {"OBJECT_NAME": "GAOFEN-10R", "OBJECT_ID": "2019-066A", "EPOCH": "2025-12-21T03:51:34.507584", "MEAN_MOTION": 14.82817641, "ECCENTRICITY": 0.0007304, "INCLINATION": 98.029, "RA_OF_ASC_NODE": 302.7003, "ARG_OF_PERICENTER": 17.4507, "MEAN_ANOMALY": 342.6956, "EPHEMERIS_TYPE": 0, "CLASSIFICATION_TYPE": "U", "NORAD_CAT_ID": 44622, "ELEMENT_SET_NO": 999, "REV_AT_EPOCH": 33599, "BSTAR": 0.00014088, "MEAN_MOTION_DOT": 1.086e-05, "MEAN_MOTION_DDOT": 0}, "tle": {"line1": "1 44622U 19066A   25355.16081606  .00001086  00000+0  14088-3 0  9996", "line2": "2 44622  98.0290 302.7003 0007304  17.4507 342.6956 14.82817641335997"}}, "geometry": {"type": "Point", "coordinates": [66.20538790353493, -80.4267106705903]}}]}